{
  "type": "FeatureCollection",
  "features": [
    {
      "type": "Feature",
      "properties": {
        "norad_id": 37320,
        "name": "COSMOS 2251 DEB",
        "group": "cosmos-2251-debris",
        "lat": -59.87823939221768,
        "lon": -163.82764889728426,
        "alt_km": 608.7803632864789,
        "timestamp": "2025-12-08T21:31:05.064130+00:00",
        "meta_object_name": "COSMOS 2251 DEB",
        "meta_object_id": "1993-036BKL",
        "meta_epoch": "2025-12-07T10:04:58.850112",
        "meta_mean_motion": 14.78679149,
        "meta_eccentricity": 0.00469494,
        "meta_inclination": 74.0461,
        "meta_ra_of_asc_node": 228.6135,
        "meta_arg_of_pericenter": 316.7124,
        "meta_mean_anomaly": 43.0365,
        "meta_ephemeris_type": 0,
        "meta_classification_type": "U",
        "meta_norad_cat_id": 37320,
        "meta_element_set_no": 999,
        "meta_rev_at_epoch": 66068,
        "meta_bstar": 0.0013976753,
        "meta_mean_motion_dot": 0.00010421,
        "meta_mean_motion_ddot": 0,
        "tle_line1": "1 37320U 93036BKL 25341.42012558  .00010421  00000+0  13977-2 0  9994",
        "tle_line2": "2 37320  74.0461 228.6135 0046949 316.7124  43.0365 14.78679149660685"
      },
      "geometry": {
        "type": "Point",
        "coordinates": [
          -163.82764889728426,
          -59.87823939221768
        ]
      }
    },
    {
      "type": "Feature",
      "properties": {
        "norad_id": 37326,
        "name": "COSMOS 2251 DEB",
        "group": "cosmos-2251-debris",
        "lat": 18.217481131019145,
        "lon": -12.540106983695159,
        "alt_km": 690.1230000573942,
        "timestamp": "2025-12-08T21:31:05.064140+00:00",
        "meta_object_name": "COSMOS 2251 DEB",
        "meta_object_id": "1993-036BKS",
        "meta_epoch": "2025-12-08T08:17:20.797440",
        "meta_mean_motion": 14.61543691,
        "meta_eccentricity": 0.00548885,
        "meta_inclination": 74.0258,
        "meta_ra_of_asc_node": 343.1049,
        "meta_arg_of_pericenter": 113.4644,
        "meta_mean_anomaly": 247.2306,
        "meta_ephemeris_type": 0,
        "meta_classification_type": "U",
        "meta_norad_cat_id": 37326,
        "meta_element_set_no": 999,
        "meta_rev_at_epoch": 85419,
        "meta_bstar": 0.00081462924,
        "meta_mean_motion_dot": 4.103e-05,
        "meta_mean_motion_ddot": 0,
        "tle_line1": "1 37326U 93036BKS 25342.34537960  .00004103  00000+0  81463-3 0  9997",
        "tle_line2": "2 37326  74.0258 343.1049 0054888 113.4644 247.2306 14.61543691854190"
      },
      "geometry": {
        "type": "Point",
        "coordinates": [
          -12.540106983695159,
          18.217481131019145
        ]
      }
    },
    {
      "type": "Feature",
      "properties": {
        "norad_id": 37330,
        "name": "COSMOS 2251 DEB",
        "group": "cosmos-2251-debris",
        "lat": 41.62192200171134,
        "lon": -42.823960251270734,
        "alt_km": 703.4694015018185,
        "timestamp": "2025-12-08T21:31:05.064150+00:00",
        "meta_object_name": "COSMOS 2251 DEB",
        "meta_object_id": "1993-036BKW",
        "meta_epoch": "2025-12-08T14:44:12.757920",
        "meta_mean_motion": 14.59521863,
        "meta_eccentricity": 0.00571644,
        "meta_inclination": 74.0185,
        "meta_ra_of_asc_node": 302.963,
        "meta_arg_of_pericenter": 152.6468,
        "meta_mean_anomaly": 207.7728,
        "meta_ephemeris_type": 0,
        "meta_classification_type": "U",
        "meta_norad_cat_id": 37330,
        "meta_element_set_no": 999,
        "meta_rev_at_epoch": 86308,
        "meta_bstar": 0.00058808014,
        "meta_mean_motion_dot": 2.827e-05,
        "meta_mean_motion_ddot": 0,
        "tle_line1": "1 37330U 93036BKW 25342.61403655  .00002827  00000+0  58808-3 0  9993",
        "tle_line2": "2 37330  74.0185 302.9630 0057164 152.6468 207.7728 14.59521863863083"
      },
      "geometry": {
        "type": "Point",
        "coordinates": [
          -42.823960251270734,
          41.62192200171134
        ]
      }
    },
    {
      "type": "Feature",
      "properties": {
        "norad_id": 37331,
        "name": "COSMOS 2251 DEB",
        "group": "cosmos-2251-debris",
        "lat": 32.09147481772973,
        "lon": -115.41647267163981,
        "alt_km": 750.7018816616137,
        "timestamp": "2025-12-08T21:31:05.064160+00:00",
        "meta_object_name": "COSMOS 2251 DEB",
        "meta_object_id": "1993-036BKX",
        "meta_epoch": "2025-12-08T12:28:40.679328",
        "meta_mean_motion": 14.35004102,
        "meta_eccentricity": 0.0054894,
        "meta_inclination": 74.0752,
        "meta_ra_of_asc_node": 75.5859,
        "meta_arg_of_pericenter": 91.1646,
        "meta_mean_anomaly": 269.5796,
        "meta_ephemeris_type": 0,
        "meta_classification_type": "U",
        "meta_norad_cat_id": 37331,
        "meta_element_set_no": 999,
        "meta_rev_at_epoch": 84699,
        "meta_bstar": 0.00094274204,
        "meta_mean_motion_dot": 2.707e-05,
        "meta_mean_motion_ddot": 0,
        "tle_line1": "1 37331U 93036BKX 25342.51991527  .00002707  00000+0  94274-3 0  9997",
        "tle_line2": "2 37331  74.0752  75.5859 0054894  91.1646 269.5796 14.35004102846990"
      },
      "geometry": {
        "type": "Point",
        "coordinates": [
          -115.41647267163981,
          32.09147481772973
        ]
      }
    },
    {
      "type": "Feature",
      "properties": {
        "norad_id": 37336,
        "name": "COSMOS 2251 DEB",
        "group": "cosmos-2251-debris",
        "lat": 21.200094527591226,
        "lon": 151.86402724245744,
        "alt_km": 785.5568509966697,
        "timestamp": "2025-12-08T21:31:05.064171+00:00",
        "meta_object_name": "COSMOS 2251 DEB",
        "meta_object_id": "1993-036BLC",
        "meta_epoch": "2025-12-01T07:48:14.136768",
        "meta_mean_motion": 14.32750931,
        "meta_eccentricity": 0.00286304,
        "meta_inclination": 74.0414,
        "meta_ra_of_asc_node": 352.0528,
        "meta_arg_of_pericenter": 73.4193,
        "meta_mean_anomaly": 287.0099,
        "meta_ephemeris_type": 0,
        "meta_classification_type": "U",
        "meta_norad_cat_id": 37336,
        "meta_element_set_no": 999,
        "meta_rev_at_epoch": 64956,
        "meta_bstar": 8.422431e-05,
        "meta_mean_motion_dot": 2.05e-06,
        "meta_mean_motion_ddot": 0,
        "tle_line1": "1 37336U 93036BLC 25335.32516362  .00000205  00000+0  84224-4 0  9999",
        "tle_line2": "2 37336  74.0414 352.0528 0028630  73.4193 287.0099 14.32750931649565"
      },
      "geometry": {
        "type": "Point",
        "coordinates": [
          151.86402724245744,
          21.200094527591226
        ]
      }
    },
    {
      "type": "Feature",
      "properties": {
        "norad_id": 37340,
        "name": "COSMOS 2251 DEB",
        "group": "cosmos-2251-debris",
        "lat": -38.28082392950275,
        "lon": -88.8385496775223,
        "alt_km": 768.5799044610276,
        "timestamp": "2025-12-08T21:31:05.064181+00:00",
        "meta_object_name": "COSMOS 2251 DEB",
        "meta_object_id": "1993-036BLG",
        "meta_epoch": "2025-12-05T05:08:42.934848",
        "meta_mean_motion": 14.36908075,
        "meta_eccentricity": 0.00174259,
        "meta_inclination": 74.0249,
        "meta_ra_of_asc_node": 290.9993,
        "meta_arg_of_pericenter": 27.9023,
        "meta_mean_anomaly": 332.3061,
        "meta_ephemeris_type": 0,
        "meta_classification_type": "U",
        "meta_norad_cat_id": 37340,
        "meta_element_set_no": 999,
        "meta_rev_at_epoch": 83959,
        "meta_bstar": 0.00037521661,
        "meta_mean_motion_dot": 1.086e-05,
        "meta_mean_motion_ddot": 0,
        "tle_line1": "1 37340U 93036BLG 25339.21438582  .00001086  00000+0  37522-3 0  9999",
        "tle_line2": "2 37340  74.0249 290.9993 0017425  27.9023 332.3061 14.36908075839593"
      },
      "geometry": {
        "type": "Point",
        "coordinates": [
          -88.8385496775223,
          -38.28082392950275
        ]
      }
    },
    {
      "type": "Feature",
      "properties": {
        "norad_id": 37483,
        "name": "COSMOS 2251 DEB",
        "group": "cosmos-2251-debris",
        "lat": -18.543803907507833,
        "lon": 144.97290928520243,
        "alt_km": 688.1976608589148,
        "timestamp": "2025-12-08T21:31:05.064191+00:00",
        "meta_object_name": "COSMOS 2251 DEB",
        "meta_object_id": "1993-036BLL",
        "meta_epoch": "2025-12-06T21:22:19.313184",
        "meta_mean_motion": 14.43543029,
        "meta_eccentricity": 0.00928393,
        "meta_inclination": 73.9727,
        "meta_ra_of_asc_node": 154.2477,
        "meta_arg_of_pericenter": 2.0807,
        "meta_mean_anomaly": 358.0716,
        "meta_ephemeris_type": 0,
        "meta_classification_type": "U",
        "meta_norad_cat_id": 37483,
        "meta_element_set_no": 999,
        "meta_rev_at_epoch": 65195,
        "meta_bstar": 0.00034556267,
        "meta_mean_motion_dot": 1.204e-05,
        "meta_mean_motion_ddot": 0,
        "tle_line1": "1 37483U 93036BLL 25340.89050131  .00001204  00000+0  34556-3 0  9999",
        "tle_line2": "2 37483  73.9727 154.2477 0092839   2.0807 358.0716 14.43543029651951"
      },
      "geometry": {
        "type": "Point",
        "coordinates": [
          144.97290928520243,
          -18.543803907507833
        ]
      }
    }
  ]
}